[{"OBJECT_NAME":"HULIANWANG DIGUI-81","OBJECT_ID":"2025-187J","EPOCH":"2026-03-06T14:01:12.101376","MEAN_MOTION":13.29341531,"ECCENTRICITY":0.00010638,"INCLINATION":50.0057,"RA_OF_ASC_NODE":213.8145,"ARG_OF_PERICENTER":141.2362,"MEAN_ANOMALY":218.8586,"EPHEMERIS_TYPE":0,"CLASSIFICATION_TYPE":"U","NORAD_CAT_ID":65313,"ELEMENT_SET_NO":999,"REV_AT_EPOCH":2606,"BSTAR":8.7064212e-5,"MEAN_MOTION_DOT":-8.4e-7,"MEAN_MOTION_DDOT":0},{"OBJECT_NAME":"HULIANWANG DIGUI-82","OBJECT_ID":"2025-220A","EPOCH":"2026-03-06T15:29:36.865248","MEAN_MOTION":13.24421926,"ECCENTRICITY":0.00022737,"INCLINATION":86.4897,"RA_OF_ASC_NODE":78.4939,"ARG_OF_PERICENTER":99.5946,"MEAN_ANOMALY":260.5445,"EPHEMERIS_TYPE":0,"CLASSIFICATION_TYPE":"U","NORAD_CAT_ID":65817,"ELEMENT_SET_NO":999,"REV_AT_EPOCH":2134,"BSTAR":3.4733569e-5,"MEAN_MOTION_DOT":3.0e-7,"MEAN_MOTION_DDOT":0},{"OBJECT_NAME":"HULIANWANG DIGUI-83","OBJECT_ID":"2025-220B","EPOCH":"2026-03-06T15:18:48.466080","MEAN_MOTION":13.24421114,"ECCENTRICITY":0.00022655,"INCLINATION":86.492,"RA_OF_ASC_NODE":78.527,"ARG_OF_PERICENTER":99.5642,"MEAN_ANOMALY":260.5748,"EPHEMERIS_TYPE":0,"CLASSIFICATION_TYPE":"U","NORAD_CAT_ID":65818,"ELEMENT_SET_NO":999,"REV_AT_EPOCH":2134,"BSTAR":3.64071e-6,"MEAN_MOTION_DOT":1.6e-7,"MEAN_MOTION_DDOT":0},{"OBJECT_NAME":"HULIANWANG DIGUI-84","OBJECT_ID":"2025-220C","EPOCH":"2026-03-06T15:07:53.351040","MEAN_MOTION":13.24421553,"ECCENTRICITY":0.00022583,"INCLINATION":86.4857,"RA_OF_ASC_NODE":78.4197,"ARG_OF_PERICENTER":98.9875,"MEAN_ANOMALY":261.1515,"EPHEMERIS_TYPE":0,"CLASSIFICATION_TYPE":"U","NORAD_CAT_ID":65819,"ELEMENT_SET_NO":999,"REV_AT_EPOCH":2134,"BSTAR":-1.0392822e-5,"MEAN_MOTION_DOT":1.0e-7,"MEAN_MOTION_DDOT":0},{"OBJECT_NAME":"HULIANWANG DIGUI-85","OBJECT_ID":"2025-220D","EPOCH":"2026-03-06T14:56:56.601312","MEAN_MOTION":13.24422067,"ECCENTRICITY":0.00022538,"INCLINATION":86.4918,"RA_OF_ASC_NODE":78.5172,"ARG_OF_PERICENTER":100.3132,"MEAN_ANOMALY":259.8257,"EPHEMERIS_TYPE":0,"CLASSIFICATION_TYPE":"U","NORAD_CAT_ID":65820,"ELEMENT_SET_NO":999,"REV_AT_EPOCH":2134,"BSTAR":-6.097459e-6,"MEAN_MOTION_DOT":1.2e-7,"MEAN_MOTION_DDOT":0},{"OBJECT_NAME":"HULIANWANG DIGUI-86","OBJECT_ID":"2025-220E","EPOCH":"2026-03-06T14:46:11.567424","MEAN_MOTION":13.24420938,"ECCENTRICITY":0.00022488,"INCLINATION":86.4897,"RA_OF_ASC_NODE":78.4781,"ARG_OF_PERICENTER":99.7568,"MEAN_ANOMALY":260.382,"EPHEMERIS_TYPE":0,"CLASSIFICATION_TYPE":"U","NORAD_CAT_ID":65821,"ELEMENT_SET_NO":999,"REV_AT_EPOCH":2134,"BSTAR":2.8250775e-5,"MEAN_MOTION_DOT":2.7e-7,"MEAN_MOTION_DDOT":0},{"OBJECT_NAME":"HULIANWANG DIGUI-87","OBJECT_ID":"2025-231A","EPOCH":"2026-03-06T13:05:22.241184","MEAN_MOTION":13.29330345,"ECCENTRICITY":6.191e-5,"INCLINATION":49.9991,"RA_OF_ASC_NODE":184.0007,"ARG_OF_PERICENTER":188.9581,"MEAN_ANOMALY":171.128,"EPHEMERIS_TYPE":0,"CLASSIFICATION_TYPE":"U","NORAD_CAT_ID":65995,"ELEMENT_SET_NO":999,"REV_AT_EPOCH":1923,"BSTAR":0.00010417595,"MEAN_MOTION_DOT":-7.6e-7,"MEAN_MOTION_DDOT":0},{"OBJECT_NAME":"HULIANWANG DIGUI-88","OBJECT_ID":"2025-231B","EPOCH":"2026-03-06T13:17:25.979424","MEAN_MOTION":13.29329387,"ECCENTRICITY":6.408e-5,"INCLINATION":49.9978,"RA_OF_ASC_NODE":184.0305,"ARG_OF_PERICENTER":194.2984,"MEAN_ANOMALY":165.7871,"EPHEMERIS_TYPE":0,"CLASSIFICATION_TYPE":"U","NORAD_CAT_ID":65996,"ELEMENT_SET_NO":999,"REV_AT_EPOCH":1923,"BSTAR":8.9576129e-5,"MEAN_MOTION_DOT":-8.2e-7,"MEAN_MOTION_DDOT":0},{"OBJECT_NAME":"HULIANWANG DIGUI-89","OBJECT_ID":"2025-231C","EPOCH":"2026-03-06T14:41:35.813184","MEAN_MOTION":13.29330009,"ECCENTRICITY":6.422e-5,"INCLINATION":49.9956,"RA_OF_ASC_NODE":183.6479,"ARG_OF_PERICENTER":195.3913,"MEAN_ANOMALY":164.694,"EPHEMERIS_TYPE":0,"CLASSIFICATION_TYPE":"U","NORAD_CAT_ID":65997,"ELEMENT_SET_NO":999,"REV_AT_EPOCH":1924,"BSTAR":0.00010222039,"MEAN_MOTION_DOT":-7.7e-7,"MEAN_MOTION_DDOT":0},{"OBJECT_NAME":"HULIANWANG DIGUI-90","OBJECT_ID":"2025-231D","EPOCH":"2026-03-06T09:04:47.592768","MEAN_MOTION":13.29330168,"ECCENTRICITY":6.118e-5,"INCLINATION":49.9984,"RA_OF_ASC_NODE":184.447,"ARG_OF_PERICENTER":194.6846,"MEAN_ANOMALY":165.4008,"EPHEMERIS_TYPE":0,"CLASSIFICATION_TYPE":"U","NORAD_CAT_ID":65998,"ELEMENT_SET_NO":999,"REV_AT_EPOCH":1921,"BSTAR":9.0873147e-5,"MEAN_MOTION_DOT":-8.2e-7,"MEAN_MOTION_DDOT":0},{"OBJECT_NAME":"HULIANWANG DIGUI-91","OBJECT_ID":"2025-231E","EPOCH":"2026-03-06T14:17:32.479584","MEAN_MOTION":13.29330165,"ECCENTRICITY":6.301e-5,"INCLINATION":50.0004,"RA_OF_ASC_NODE":183.6189,"ARG_OF_PERICENTER":194.8317,"MEAN_ANOMALY":165.2536,"EPHEMERIS_TYPE":0,"CLASSIFICATION_TYPE":"U","NORAD_CAT_ID":65999,"ELEMENT_SET_NO":999,"REV_AT_EPOCH":1924,"BSTAR":9.5803962e-5,"MEAN_MOTION_DOT":-8.0e-7,"MEAN_MOTION_DDOT":0},{"OBJECT_NAME":"HULIANWANG DIGUI-92","OBJECT_ID":"2025-231F","EPOCH":"2026-03-06T14:05:29.844672","MEAN_MOTION":13.29330705,"ECCENTRICITY":6.303e-5,"INCLINATION":50.0045,"RA_OF_ASC_NODE":183.621,"ARG_OF_PERICENTER":195.3277,"MEAN_ANOMALY":164.7577,"EPHEMERIS_TYPE":0,"CLASSIFICATION_TYPE":"U","NORAD_CAT_ID":66000,"ELEMENT_SET_NO":999,"REV_AT_EPOCH":1924,"BSTAR":9.7838192e-5,"MEAN_MOTION_DOT":-7.9e-7,"MEAN_MOTION_DDOT":0},{"OBJECT_NAME":"HULIANWANG DIGUI-93","OBJECT_ID":"2025-231G","EPOCH":"2026-03-06T13:41:29.387328","MEAN_MOTION":13.29329782,"ECCENTRICITY":6.209e-5,"INCLINATION":50.0013,"RA_OF_ASC_NODE":183.5009,"ARG_OF_PERICENTER":195.0107,"MEAN_ANOMALY":165.0747,"EPHEMERIS_TYPE":0,"CLASSIFICATION_TYPE":"U","NORAD_CAT_ID":66001,"ELEMENT_SET_NO":999,"REV_AT_EPOCH":1924,"BSTAR":9.5672513e-5,"MEAN_MOTION_DOT":-8.0e-7,"MEAN_MOTION_DDOT":0},{"OBJECT_NAME":"HULIANWANG DIGUI-94","OBJECT_ID":"2025-231H","EPOCH":"2026-03-06T13:53:28.256928","MEAN_MOTION":13.29330936,"ECCENTRICITY":6.39e-5,"INCLINATION":50.0051,"RA_OF_ASC_NODE":183.5892,"ARG_OF_PERICENTER":196.2704,"MEAN_ANOMALY":163.8148,"EPHEMERIS_TYPE":0,"CLASSIFICATION_TYPE":"U","NORAD_CAT_ID":66002,"ELEMENT_SET_NO":999,"REV_AT_EPOCH":1924,"BSTAR":9.0392573e-5,"MEAN_MOTION_DOT":-8.2e-7,"MEAN_MOTION_DDOT":0},{"OBJECT_NAME":"HULIANWANG DIGUI-95","OBJECT_ID":"2025-231J","EPOCH":"2026-03-06T15:17:55.929696","MEAN_MOTION":13.29325854,"ECCENTRICITY":6.377e-5,"INCLINATION":50.0024,"RA_OF_ASC_NODE":183.2029,"ARG_OF_PERICENTER":193.1229,"MEAN_ANOMALY":166.9627,"EPHEMERIS_TYPE":0,"CLASSIFICATION_TYPE":"U","NORAD_CAT_ID":66003,"ELEMENT_SET_NO":999,"REV_AT_EPOCH":1925,"BSTAR":8.9326325e-5,"MEAN_MOTION_DOT":-8.3e-7,"MEAN_MOTION_DDOT":0},{"OBJECT_NAME":"HULIANWANG DIGUI-96","OBJECT_ID":"2025-258A","EPOCH":"2026-03-06T08:38:42.472320","MEAN_MOTION":13.2933155,"ECCENTRICITY":4.006e-5,"INCLINATION":50.0048,"RA_OF_ASC_NODE":304.4314,"ARG_OF_PERICENTER":100.2884,"MEAN_ANOMALY":259.8033,"EPHEMERIS_TYPE":0,"CLASSIFICATION_TYPE":"U","NORAD_CAT_ID":66412,"ELEMENT_SET_NO":999,"REV_AT_EPOCH":1605,"BSTAR":0.00013289135,"MEAN_MOTION_DOT":-6.2e-7,"MEAN_MOTION_DDOT":0}]
