HULIANWANG DIGUI-81     
1 65313U 25187J   26065.58416784 -.00000084  00000+0  87064-4 0  9994
2 65313  50.0057 213.8145 0001063 141.2362 218.8586 13.29341531 26064
HULIANWANG DIGUI-82     
1 65817U 25220A   26065.64556557  .00000030  00000+0  34734-4 0  9997
2 65817  86.4897  78.4939 0002273  99.5946 260.5445 13.24421926 21347
HULIANWANG DIGUI-83     
1 65818U 25220B   26065.63806095  .00000016  00000+0  36407-5 0  9996
2 65818  86.4920  78.5270 0002265  99.5642 260.5748 13.24421114 21343
HULIANWANG DIGUI-84     
1 65819U 25220C   26065.63047860  .00000010  00000+0 -10393-4 0  9994
2 65819  86.4857  78.4197 0002258  98.9875 261.1515 13.24421553 21349
HULIANWANG DIGUI-85     
1 65820U 25220D   26065.62287733  .00000012  00000+0 -60975-5 0  9994
2 65820  86.4918  78.5172 0002253 100.3132 259.8257 13.24422067 21340
HULIANWANG DIGUI-86     
1 65821U 25220E   26065.61541166  .00000027  00000+0  28251-4 0  9992
2 65821  86.4897  78.4781 0002248  99.7568 260.3820 13.24420938 21348
HULIANWANG DIGUI-87     
1 65995U 25231A   26065.54539631 -.00000076  00000+0  10418-3 0  9992
2 65995  49.9991 184.0007 0000619 188.9581 171.1280 13.29330345 19231
HULIANWANG DIGUI-88     
1 65996U 25231B   26065.55377291 -.00000082  00000+0  89576-4 0  9995
2 65996  49.9978 184.0305 0000640 194.2984 165.7871 13.29329387 19238
HULIANWANG DIGUI-89     
1 65997U 25231C   26065.61222006 -.00000077  00000+0  10222-3 0  9991
2 65997  49.9956 183.6479 0000642 195.3913 164.6940 13.29330009 19247
HULIANWANG DIGUI-90     
1 65998U 25231D   26065.37832862 -.00000082  00000+0  90873-4 0  9999
2 65998  49.9984 184.4470 0000611 194.6846 165.4008 13.29330168 19219
HULIANWANG DIGUI-91     
1 65999U 25231E   26065.59551481 -.00000080  00000+0  95804-4 0  9996
2 65999  50.0004 183.6189 0000630 194.8317 165.2536 13.29330165 19244
HULIANWANG DIGUI-92     
1 66000U 25231F   26065.58715098 -.00000079  00000+0  97838-4 0  9992
2 66000  50.0045 183.6210 0000630 195.3277 164.7577 13.29330705 19248
HULIANWANG DIGUI-93     
1 66001U 25231G   26065.57047902 -.00000080  00000+0  95673-4 0  9991
2 66001  50.0013 183.5009 0000620 195.0107 165.0747 13.29329782 19243
HULIANWANG DIGUI-94     
1 66002U 25231H   26065.57879927 -.00000082  00000+0  90393-4 0  9998
2 66002  50.0051 183.5892 0000639 196.2704 163.8148 13.29330936 19246
HULIANWANG DIGUI-95     
1 66003U 25231J   26065.63745289 -.00000083  00000+0  89326-4 0  9994
2 66003  50.0024 183.2029 0000637 193.1229 166.9627 13.29325854 19252
HULIANWANG DIGUI-96     
1 66412U 25258A   26065.36021380 -.00000062  00000+0  13289-3 0  9997
2 66412  50.0048 304.4314 0000400 100.2884 259.8033 13.29331550 16058
